[{"OBJECT_NAME":"STARLINK-36257","OBJECT_ID":"2026-035AA","EPOCH":"2026-03-09T22:00:01.999584","MEAN_MOTION":15.86678257,"ECCENTRICITY":0.00014458,"INCLINATION":97.2673,"RA_OF_ASC_NODE":1.2955,"ARG_OF_PERICENTER":83.0592,"MEAN_ANOMALY":59.3433,"EPHEMERIS_TYPE":0,"CLASSIFICATION_TYPE":"U","NORAD_CAT_ID":67903,"ELEMENT_SET_NO":999,"REV_AT_EPOCH":384,"BSTAR":-0.0064848651,"MEAN_MOTION_DOT":-0.01427743,"MEAN_MOTION_DDOT":0},{"OBJECT_NAME":"OBJECT E","OBJECT_ID":"2021-035E","EPOCH":"2026-02-24T23:27:52.334784","MEAN_MOTION":15.69205353,"ECCENTRICITY":0.0007182,"INCLINATION":41.4547,"RA_OF_ASC_NODE":257.9148,"ARG_OF_PERICENTER":354.279,"MEAN_ANOMALY":5.7969,"EPHEMERIS_TYPE":0,"CLASSIFICATION_TYPE":"U","NORAD_CAT_ID":63523,"ELEMENT_SET_NO":999,"REV_AT_EPOCH":5075,"BSTAR":0.00060614223,"MEAN_MOTION_DOT":0.00073106,"MEAN_MOTION_DDOT":0}]
